start=new Date('2022-06-07T00:00:00.000Z').valueOf();
sats=[{"REV_AT_EPOCH":"130","ELEMENT_SET_NO":"999","ARG_OF_PERICENTER":"51.7175","DECAY_DATE":null,"OBJECT_TYPE":"PAYLOAD","RA_OF_ASC_NODE":"7.2524","ECCENTRICITY":"0.00020990","SITE":"AFETR","MEAN_ELEMENT_THEORY":"SGP4","LAUNCH_DATE":"2022-02-21","CENTER_NAME":"EARTH","SEMIMAJOR_AXIS":"6917.893","PERIAPSIS":"538.306","MEAN_MOTION_DOT":"0.00009357","NORAD_CAT_ID":"51716","OBJECT_ID":"2022-016C","EPOCH":"2022-06-06T22:00:00.999936","APOAPSIS":"541.211","MEAN_MOTION":"15.08835711","TLE_LINE1":"1 51716U 22016C   22157.91667824  .00009357  00000-0  60528-3 0  9999","INCLINATION":"53.2183","RCS_SIZE":"LARGE","FILE":"3484350","TIME_SYSTEM":"UTC","TLE_LINE2":"2 51716  53.2183   7.2524 0002099  51.7175 337.5769 15.08835711  1303","MEAN_MOTION_DDOT":"0.0000000000000","PERIOD":"95.438","OBJECT_NAME":"STARLINK-3543","BSTAR":"0.00060528000000","CLASSIFICATION_TYPE":"U","COUNTRY_CODE":"US","REF_FRAME":"TEME","GP_ID":"205528617","MEAN_ANOMALY":"337.5769","EPHEMERIS_TYPE":"0"},{"MEAN_MOTION":"15.08846667","TLE_LINE1":"1 51717U 22016D   22157.91667824 -.00005271  00000-0 -31326-3 0  9997","INCLINATION":"53.2192","APOAPSIS":"540.956","TIME_SYSTEM":"UTC","RCS_SIZE":"LARGE","FILE":"3484350","TLE_LINE2":"2 51717  53.2192   7.2509 0001780  56.4487 352.8457 15.08846667  1307","MEAN_MOTION_DDOT":"0.0000000000000","PERIOD":"95.437","OBJECT_NAME":"STARLINK-3445","BSTAR":"-0.00031326000000","CLASSIFICATION_TYPE":"U","COUNTRY_CODE":"US","REF_FRAME":"TEME","GP_ID":"205528841","EPHEMERIS_TYPE":"0","MEAN_ANOMALY":"352.8457","ELEMENT_SET_NO":"999","REV_AT_EPOCH":"130","ARG_OF_PERICENTER":"56.4487","DECAY_DATE":null,"OBJECT_TYPE":"PAYLOAD","ECCENTRICITY":"0.00017800","RA_OF_ASC_NODE":"7.2509","SITE":"AFETR","MEAN_ELEMENT_THEORY":"SGP4","LAUNCH_DATE":"2022-02-21","SEMIMAJOR_AXIS":"6917.860","CENTER_NAME":"EARTH","NORAD_CAT_ID":"51717","MEAN_MOTION_DOT":"-0.00005271","PERIAPSIS":"538.494","EPOCH":"2022-06-06T22:00:00.999936","OBJECT_ID":"2022-016D"},{"MEAN_MOTION_DOT":"0.00007550","PERIAPSIS":"538.490","NORAD_CAT_ID":"51718","OBJECT_ID":"2022-016E","EPOCH":"2022-06-06T22:00:00.999936","LAUNCH_DATE":"2022-02-21","SEMIMAJOR_AXIS":"6917.943","CENTER_NAME":"EARTH","MEAN_ELEMENT_THEORY":"SGP4","SITE":"AFETR","RA_OF_ASC_NODE":"7.2450","ECCENTRICITY":"0.00019040","OBJECT_TYPE":"PAYLOAD","ARG_OF_PERICENTER":"56.5508","DECAY_DATE":null,"REV_AT_EPOCH":"130","ELEMENT_SET_NO":"999","GP_ID":"205527121","EPHEMERIS_TYPE":"0","MEAN_ANOMALY":"72.7666","REF_FRAME":"TEME","COUNTRY_CODE":"US","CLASSIFICATION_TYPE":"U","BSTAR":"0.00049225000000","OBJECT_NAME":"STARLINK-3546","MEAN_MOTION_DDOT":"0.0000000000000","PERIOD":"95.439","TLE_LINE2":"2 51718  53.2150   7.2450 0001904  56.5508  72.7666 15.08819655  1307","APOAPSIS":"541.125","TLE_LINE1":"1 51718U 22016E   22157.91667824  .00007550  00000-0  49225-3 0  9995","MEAN_MOTION":"15.08819655","INCLINATION":"53.2150","RCS_SIZE":"LARGE","FILE":"3484350","TIME_SYSTEM":"UTC"},{"OBJECT_NAME":"STARLINK-3540","BSTAR":"-0.00183070000000","CLASSIFICATION_TYPE":"U","REF_FRAME":"TEME","COUNTRY_CODE":"US","GP_ID":"205527868","MEAN_ANOMALY":"27.7181","EPHEMERIS_TYPE":"0","TLE_LINE1":"1 51719U 22016F   22157.91667824 -.00029311  00000-0 -18307-2 0  9993","MEAN_MOTION":"15.08846891","INCLINATION":"53.2200","APOAPSIS":"540.977","TIME_SYSTEM":"UTC","RCS_SIZE":"LARGE","FILE":"3484350","TLE_LINE2":"2 51719  53.2200   7.2479 0001811  61.5878  27.7181 15.08846891  1302","MEAN_MOTION_DDOT":"0.0000000000000","PERIOD":"95.437","SITE":"AFETR","MEAN_ELEMENT_THEORY":"SGP4","LAUNCH_DATE":"2022-02-21","SEMIMAJOR_AXIS":"6917.859","CENTER_NAME":"EARTH","NORAD_CAT_ID":"51719","MEAN_MOTION_DOT":"-0.00029311","PERIAPSIS":"538.472","EPOCH":"2022-06-06T22:00:00.999936","OBJECT_ID":"2022-016F","ELEMENT_SET_NO":"999","REV_AT_EPOCH":"130","ARG_OF_PERICENTER":"61.5878","DECAY_DATE":null,"OBJECT_TYPE":"PAYLOAD","ECCENTRICITY":"0.00018110","RA_OF_ASC_NODE":"7.2479"},{"RCS_SIZE":"LARGE","FILE":"3484350","TIME_SYSTEM":"UTC","APOAPSIS":"541.031","TLE_LINE1":"1 51720U 22016G   22157.91667824  .00008275  00000-0  53757-3 0  9998","INCLINATION":"53.2163","MEAN_MOTION":"15.08826891","PERIOD":"95.438","MEAN_MOTION_DDOT":"0.0000000000000","TLE_LINE2":"2 51720  53.2163   7.2492 0001800  49.2123 100.0822 15.08826891  1306","CLASSIFICATION_TYPE":"U","BSTAR":"0.00053757000000","OBJECT_NAME":"STARLINK-3526","EPHEMERIS_TYPE":"0","MEAN_ANOMALY":"100.0822","GP_ID":"205528117","COUNTRY_CODE":"US","REF_FRAME":"TEME","DECAY_DATE":null,"ARG_OF_PERICENTER":"49.2123","REV_AT_EPOCH":"130","ELEMENT_SET_NO":"999","RA_OF_ASC_NODE":"7.2492","ECCENTRICITY":"0.00018000","OBJECT_TYPE":"PAYLOAD","MEAN_ELEMENT_THEORY":"SGP4","SITE":"AFETR","OBJECT_ID":"2022-016G","EPOCH":"2022-06-06T22:00:00.999936","MEAN_MOTION_DOT":"0.00008275","PERIAPSIS":"538.540","NORAD_CAT_ID":"51720","CENTER_NAME":"EARTH","SEMIMAJOR_AXIS":"6917.920","LAUNCH_DATE":"2022-02-21"},{"ARG_OF_PERICENTER":"58.7594","DECAY_DATE":null,"ELEMENT_SET_NO":"999","REV_AT_EPOCH":"130","ECCENTRICITY":"0.00018900","RA_OF_ASC_NODE":"7.2440","OBJECT_TYPE":"PAYLOAD","MEAN_ELEMENT_THEORY":"SGP4","SITE":"AFETR","NORAD_CAT_ID":"51721","MEAN_MOTION_DOT":"-0.00036749","PERIAPSIS":"538.388","EPOCH":"2022-06-06T22:00:00.999936","OBJECT_ID":"2022-016H","LAUNCH_DATE":"2022-02-21","CENTER_NAME":"EARTH","SEMIMAJOR_AXIS":"6917.830","TLE_LINE1":"1 51721U 22016H   22157.91667824 -.00036749  00000-0 -23016-2 0  9992","INCLINATION":"53.2193","MEAN_MOTION":"15.08856353","APOAPSIS":"541.003","TIME_SYSTEM":"UTC","RCS_SIZE":"LARGE","FILE":"3484350","MEAN_MOTION_DDOT":"0.0000000000000","PERIOD":"95.437","TLE_LINE2":"2 51721  53.2193   7.2440 0001890  58.7594  50.5270 15.08856353  1301","CLASSIFICATION_TYPE":"U","BSTAR":"-0.00230160000000","OBJECT_NAME":"STARLINK-3524","GP_ID":"205528341","EPHEMERIS_TYPE":"0","MEAN_ANOMALY":"50.5270","COUNTRY_CODE":"US","REF_FRAME":"TEME"},{"OBJECT_NAME":"STARLINK-3535","CLASSIFICATION_TYPE":"U","BSTAR":"-0.00152770000000","REF_FRAME":"TEME","COUNTRY_CODE":"US","MEAN_ANOMALY":"129.3024","EPHEMERIS_TYPE":"0","GP_ID":"205527622","TIME_SYSTEM":"UTC","FILE":"3484350","RCS_SIZE":"LARGE","TLE_LINE1":"1 51722U 22016J   22157.91667824 -.00024530  00000-0 -15277-2 0  9998","MEAN_MOTION":"15.08855283","INCLINATION":"53.2159","APOAPSIS":"540.945","TLE_LINE2":"2 51722  53.2159   7.2447 0001802  59.9996 129.3024 15.08855283  1306","PERIOD":"95.437","MEAN_MOTION_DDOT":"0.0000000000000","SITE":"AFETR","MEAN_ELEMENT_THEORY":"SGP4","CENTER_NAME":"EARTH","SEMIMAJOR_AXIS":"6917.834","LAUNCH_DATE":"2022-02-21","EPOCH":"2022-06-06T22:00:00.999936","OBJECT_ID":"2022-016J","NORAD_CAT_ID":"51722","MEAN_MOTION_DOT":"-0.00024530","PERIAPSIS":"538.452","ELEMENT_SET_NO":"999","REV_AT_EPOCH":"130","DECAY_DATE":null,"ARG_OF_PERICENTER":"59.9996","OBJECT_TYPE":"PAYLOAD","ECCENTRICITY":"0.00018020","RA_OF_ASC_NODE":"7.2447"},{"SITE":"AFETR","MEAN_ELEMENT_THEORY":"SGP4","LAUNCH_DATE":"2022-02-21","CENTER_NAME":"EARTH","SEMIMAJOR_AXIS":"6719.743","NORAD_CAT_ID":"51723","PERIAPSIS":"335.451","MEAN_MOTION_DOT":"0.00092191","EPOCH":"2022-06-06T22:00:00.999936","OBJECT_ID":"2022-016K","ELEMENT_SET_NO":"999","REV_AT_EPOCH":"130","ARG_OF_PERICENTER":"286.8550","DECAY_DATE":null,"OBJECT_TYPE":"PAYLOAD","ECCENTRICITY":"0.00091620","RA_OF_ASC_NODE":"336.1917","OBJECT_NAME":"STARLINK-3531","CLASSIFICATION_TYPE":"U","BSTAR":"0.00057653000000","COUNTRY_CODE":"US","REF_FRAME":"TEME","GP_ID":"205528369","MEAN_ANOMALY":"184.4504","EPHEMERIS_TYPE":"0","MEAN_MOTION":"15.76063761","TLE_LINE1":"1 51723U 22016K   22157.91667824  .00092191  00000-0  57653-3 0  9990","INCLINATION":"53.2207","APOAPSIS":"347.764","TIME_SYSTEM":"UTC","RCS_SIZE":"LARGE","FILE":"3484350","TLE_LINE2":"2 51723  53.2207 336.1917 0009162 286.8550 184.4504 15.76063761  1303","MEAN_MOTION_DDOT":"0.0000000000000","PERIOD":"91.367"},{"SITE":"AFETR","MEAN_ELEMENT_THEORY":"SGP4","LAUNCH_DATE":"2022-02-21","SEMIMAJOR_AXIS":"6917.931","CENTER_NAME":"EARTH","PERIAPSIS":"538.682","MEAN_MOTION_DOT":"0.00011954","NORAD_CAT_ID":"51724","OBJECT_ID":"2022-016L","EPOCH":"2022-06-06T22:00:00.999936","REV_AT_EPOCH":"130","ELEMENT_SET_NO":"999","ARG_OF_PERICENTER":"60.9149","DECAY_DATE":null,"OBJECT_TYPE":"PAYLOAD","RA_OF_ASC_NODE":"7.2455","ECCENTRICITY":"0.00016110","OBJECT_NAME":"STARLINK-3529","BSTAR":"0.00076821000000","CLASSIFICATION_TYPE":"U","COUNTRY_CODE":"US","REF_FRAME":"TEME","GP_ID":"205528618","EPHEMERIS_TYPE":"0","MEAN_ANOMALY":"168.3754","APOAPSIS":"540.911","MEAN_MOTION":"15.08823365","TLE_LINE1":"1 51724U 22016L   22157.91667824  .00011954  00000-0  76821-3 0  9997","INCLINATION":"53.2163","RCS_SIZE":"LARGE","FILE":"3484350","TIME_SYSTEM":"UTC","TLE_LINE2":"2 51724  53.2163   7.2455 0001611  60.9149 168.3754 15.08823365  1301","MEAN_MOTION_DDOT":"0.0000000000000","PERIOD":"95.439"},{"OBJECT_TYPE":"PAYLOAD","RA_OF_ASC_NODE":"7.2503","ECCENTRICITY":"0.00018680","REV_AT_EPOCH":"130","ELEMENT_SET_NO":"999","ARG_OF_PERICENTER":"59.3117","DECAY_DATE":null,"LAUNCH_DATE":"2022-02-21","SEMIMAJOR_AXIS":"6917.876","CENTER_NAME":"EARTH","PERIAPSIS":"538.449","MEAN_MOTION_DOT":"0.00008948","NORAD_CAT_ID":"51725","OBJECT_ID":"2022-016M","EPOCH":"2022-06-06T22:00:00.999936","SITE":"AFETR","MEAN_ELEMENT_THEORY":"SGP4","TLE_LINE2":"2 51725  53.2171   7.2503 0001868  59.3117 109.9659 15.08841496  1306","MEAN_MOTION_DDOT":"0.0000000000000","PERIOD":"95.437","APOAPSIS":"541.033","TLE_LINE1":"1 51725U 22016M   22157.91667824  .00008948  00000-0  57957-3 0  9996","INCLINATION":"53.2171","MEAN_MOTION":"15.08841496","FILE":"3484350","RCS_SIZE":"LARGE","TIME_SYSTEM":"UTC","COUNTRY_CODE":"US","REF_FRAME":"TEME","GP_ID":"205528842","EPHEMERIS_TYPE":"0","MEAN_ANOMALY":"109.9659","OBJECT_NAME":"STARLINK-3522","BSTAR":"0.00057957000000","CLASSIFICATION_TYPE":"U"}];
